{
  "norad_id": 51969,
  "name": "STARLINK-3680",
  "history": [
    {
      "epoch": "2026-03-28T20:58:48.206784Z",
      "apogee_km": 475.86773076842746,
      "perigee_km": 474.61973013741135,
      "latitude_deg": -2.5313806608126635e-06,
      "longitude_deg": 154.22258025512517,
      "height_km": 476.1317514372616,
      "semi_major_axis_km": 6853.380730452919,
      "eccentricity": 9.105e-05,
      "inclination_deg": 53.1598,
      "raan_deg": 295.2118,
      "arg_perigee_deg": 89.0346,
      "mean_anomaly_deg": 271.0759,
      "mean_motion_rev_day": 15.30190401
    }
  ]
}