{"fetched_at":"2026-03-29T16:36:15Z","count":15609,"tles":[{"name":"STARLINK-3680","line1":"1 51969U 22025P   26087.87416906 -.00000846  00000+0 -16467-4 0  9992","line2":"2 51969  53.1598 295.2118 0000910  89.0346 271.0759 15.30190401223946","category":"Starlink"}]}